{"fetched_at":"2026-07-19T17:31:04.968Z","source":"https://celestrak.org/NORAD/elements/gp.php?GROUP=globalstar&FORMAT=JSON","constellation":"globalstar","records":[{"OBJECT_NAME":"GLOBALSTAR M069","OBJECT_ID":"2007-020C","EPOCH":"2026-07-19T07:37:53.854752","CLASSIFICATION_TYPE":"U","MEAN_MOTION":12.23472365,"ECCENTRICITY":0.00015355,"INCLINATION":52.0011,"RA_OF_ASC_NODE":161.1821,"ARG_OF_PERICENTER":218.8316,"MEAN_ANOMALY":291.1387,"EPHEMERIS_TYPE":0,"NORAD_CAT_ID":31573,"ELEMENT_SET_NO":999,"REV_AT_EPOCH":88273,"BSTAR":0.00025664619,"MEAN_MOTION_DOT":-6.5e-7,"MEAN_MOTION_DDOT":0},{"OBJECT_NAME":"GLOBALSTAR M072","OBJECT_ID":"2007-020D","EPOCH":"2026-07-19T04:51:28.452960","CLASSIFICATION_TYPE":"U","MEAN_MOTION":11.91658787,"ECCENTRICITY":0.00016498,"INCLINATION":51.995,"RA_OF_ASC_NODE":15.0121,"ARG_OF_PERICENTER":42.9418,"MEAN_ANOMALY":127.9082,"EPHEMERIS_TYPE":0,"NORAD_CAT_ID":31574,"ELEMENT_SET_NO":999,"REV_AT_EPOCH":87879,"BSTAR":-0.000051975686,"MEAN_MOTION_DOT":-8.8e-7,"MEAN_MOTION_DDOT":0},{"OBJECT_NAME":"GLOBALSTAR M066","OBJECT_ID":"2007-048C","EPOCH":"2026-07-19T07:36:22.714848","CLASSIFICATION_TYPE":"U","MEAN_MOTION":12.30389984,"ECCENTRICITY":0.00055413,"INCLINATION":51.9612,"RA_OF_ASC_NODE":325.6785,"ARG_OF_PERICENTER":110.025,"MEAN_ANOMALY":266.3848,"EPHEMERIS_TYPE":0,"NORAD_CAT_ID":32265,"ELEMENT_SET_NO":999,"REV_AT_EPOCH":86418,"BSTAR":0.00047953495,"MEAN_MOTION_DOT":-3.8e-7,"MEAN_MOTION_DDOT":0},{"OBJECT_NAME":"GLOBALSTAR M079","OBJECT_ID":"2010-054A","EPOCH":"2026-07-18T21:52:53.584320","CLASSIFICATION_TYPE":"U","MEAN_MOTION":12.62266401,"ECCENTRICITY":0.0001129,"INCLINATION":52.0054,"RA_OF_ASC_NODE":12.0956,"ARG_OF_PERICENTER":83.7766,"MEAN_ANOMALY":80.3936,"EPHEMERIS_TYPE":0,"NORAD_CAT_ID":37188,"ELEMENT_SET_NO":999,"REV_AT_EPOCH":72655,"BSTAR":-0.000025508987,"MEAN_MOTION_DOT":-0.00000108,"MEAN_MOTION_DDOT":0},{"OBJECT_NAME":"GLOBALSTAR M074","OBJECT_ID":"2010-054B","EPOCH":"2026-07-19T06:09:10.998720","CLASSIFICATION_TYPE":"U","MEAN_MOTION":12.62262067,"ECCENTRICITY":0.00008565,"INCLINATION":52.0035,"RA_OF_ASC_NODE":10.307,"ARG_OF_PERICENTER":98.7148,"MEAN_ANOMALY":72.257,"EPHEMERIS_TYPE":0,"NORAD_CAT_ID":37189,"ELEMENT_SET_NO":999,"REV_AT_EPOCH":72720,"BSTAR":-0.000019249372,"MEAN_MOTION_DOT":-0.00000107,"MEAN_MOTION_DDOT":0},{"OBJECT_NAME":"GLOBALSTAR M076","OBJECT_ID":"2010-054C","EPOCH":"2026-07-19T04:53:14.858880","CLASSIFICATION_TYPE":"U","MEAN_MOTION":12.62262553,"ECCENTRICITY":0.00010955,"INCLINATION":52.005,"RA_OF_ASC_NODE":10.6737,"ARG_OF_PERICENTER":97.6061,"MEAN_ANOMALY":73.5333,"EPHEMERIS_TYPE":0,"NORAD_CAT_ID":37190,"ELEMENT_SET_NO":999,"REV_AT_EPOCH":72691,"BSTAR":0.000065293786,"MEAN_MOTION_DOT":-9.2e-7,"MEAN_MOTION_DDOT":0},{"OBJECT_NAME":"GLOBALSTAR M077","OBJECT_ID":"2010-054D","EPOCH":"2026-07-18T21:20:08.006784","CLASSIFICATION_TYPE":"U","MEAN_MOTION":11.67547245,"ECCENTRICITY":0.00021985,"INCLINATION":51.9961,"RA_OF_ASC_NODE":98.8316,"ARG_OF_PERICENTER":231.8864,"MEAN_ANOMALY":208.0459,"EPHEMERIS_TYPE":0,"NORAD_CAT_ID":37191,"ELEMENT_SET_NO":999,"REV_AT_EPOCH":72484,"BSTAR":-0.00043079622,"MEAN_MOTION_DOT":-0.00000101,"MEAN_MOTION_DDOT":0},{"OBJECT_NAME":"GLOBALSTAR M075","OBJECT_ID":"2010-054E","EPOCH":"2026-07-19T01:21:50.533632","CLASSIFICATION_TYPE":"U","MEAN_MOTION":12.62267888,"ECCENTRICITY":0.00007819,"INCLINATION":51.9955,"RA_OF_ASC_NODE":53.1567,"ARG_OF_PERICENTER":70.6238,"MEAN_ANOMALY":93.6683,"EPHEMERIS_TYPE":0,"NORAD_CAT_ID":37192,"ELEMENT_SET_NO":999,"REV_AT_EPOCH":72596,"BSTAR":0.000018153493,"MEAN_MOTION_DOT":-0.00000101,"MEAN_MOTION_DDOT":0},{"OBJECT_NAME":"GLOBALSTAR M073","OBJECT_ID":"2010-054F","EPOCH":"2026-07-19T01:24:47.153376","CLASSIFICATION_TYPE":"U","MEAN_MOTION":12.62266947,"ECCENTRICITY":0.00010172,"INCLINATION":52.0081,"RA_OF_ASC_NODE":327.2763,"ARG_OF_PERICENTER":101.9627,"MEAN_ANOMALY":69.9281,"EPHEMERIS_TYPE":0,"NORAD_CAT_ID":37193,"ELEMENT_SET_NO":999,"REV_AT_EPOCH":72795,"BSTAR":0.000046243838,"MEAN_MOTION_DOT":-9.5e-7,"MEAN_MOTION_DDOT":0},{"OBJECT_NAME":"GLOBALSTAR M083","OBJECT_ID":"2011-033A","EPOCH":"2026-07-19T04:45:08.263584","CLASSIFICATION_TYPE":"U","MEAN_MOTION":12.62264346,"ECCENTRICITY":0.00007013,"INCLINATION":51.9858,"RA_OF_ASC_NODE":275.0389,"ARG_OF_PERICENTER":110.3248,"MEAN_ANOMALY":275.3725,"EPHEMERIS_TYPE":0,"NORAD_CAT_ID":37739,"ELEMENT_SET_NO":999,"REV_AT_EPOCH":69699,"BSTAR":0.0001119529,"MEAN_MOTION_DOT":-8.4e-7,"MEAN_MOTION_DDOT":0},{"OBJECT_NAME":"GLOBALSTAR M088","OBJECT_ID":"2011-033B","EPOCH":"2026-07-19T02:29:33.376128","CLASSIFICATION_TYPE":"U","MEAN_MOTION":12.62269478,"ECCENTRICITY":0.00001114,"INCLINATION":52.019,"RA_OF_ASC_NODE":181.8282,"ARG_OF_PERICENTER":44.5486,"MEAN_ANOMALY":31.8391,"EPHEMERIS_TYPE":0,"NORAD_CAT_ID":37740,"ELEMENT_SET_NO":999,"REV_AT_EPOCH":69252,"BSTAR":-0.000038031887,"MEAN_MOTION_DOT":-0.00000111,"MEAN_MOTION_DDOT":0},{"OBJECT_NAME":"GLOBALSTAR M091","OBJECT_ID":"2011-033C","EPOCH":"2026-07-19T05:02:06.078912","CLASSIFICATION_TYPE":"U","MEAN_MOTION":12.62264247,"ECCENTRICITY":0.00005204,"INCLINATION":51.9986,"RA_OF_ASC_NODE":144.4239,"ARG_OF_PERICENTER":31.8856,"MEAN_ANOMALY":106.663,"EPHEMERIS_TYPE":0,"NORAD_CAT_ID":37741,"ELEMENT_SET_NO":999,"REV_AT_EPOCH":69332,"BSTAR":0.000062743409,"MEAN_MOTION_DOT":-9.3e-7,"MEAN_MOTION_DDOT":0},{"OBJECT_NAME":"GLOBALSTAR M085","OBJECT_ID":"2011-033D","EPOCH":"2026-07-19T04:51:55.433088","CLASSIFICATION_TYPE":"U","MEAN_MOTION":12.62264435,"ECCENTRICITY":0.00008602,"INCLINATION":52.0128,"RA_OF_ASC_NODE":95.7659,"ARG_OF_PERICENTER":47.6871,"MEAN_ANOMALY":118.7345,"EPHEMERIS_TYPE":0,"NORAD_CAT_ID":37742,"ELEMENT_SET_NO":999,"REV_AT_EPOCH":69383,"BSTAR":0.00011143185,"MEAN_MOTION_DOT":-8.4e-7,"MEAN_MOTION_DDOT":0},{"OBJECT_NAME":"GLOBALSTAR M081","OBJECT_ID":"2011-033E","EPOCH":"2026-07-19T05:33:03.312576","CLASSIFICATION_TYPE":"U","MEAN_MOTION":12.62265336,"ECCENTRICITY":0.00007463,"INCLINATION":51.9959,"RA_OF_ASC_NODE":98.0785,"ARG_OF_PERICENTER":60.1551,"MEAN_ANOMALY":115.9987,"EPHEMERIS_TYPE":0,"NORAD_CAT_ID":37743,"ELEMENT_SET_NO":999,"REV_AT_EPOCH":69398,"BSTAR":0.000084119264,"MEAN_MOTION_DOT":-8.9e-7,"MEAN_MOTION_DDOT":0},{"OBJECT_NAME":"GLOBALSTAR M089","OBJECT_ID":"2011-033F","EPOCH":"2026-07-19T00:43:52.921632","CLASSIFICATION_TYPE":"U","MEAN_MOTION":12.6226762,"ECCENTRICITY":0.00007151,"INCLINATION":51.994,"RA_OF_ASC_NODE":52.8424,"ARG_OF_PERICENTER":92.5063,"MEAN_ANOMALY":71.8065,"EPHEMERIS_TYPE":0,"NORAD_CAT_ID":37744,"ELEMENT_SET_NO":999,"REV_AT_EPOCH":69480,"BSTAR":0.000024624168,"MEAN_MOTION_DOT":-9.9e-7,"MEAN_MOTION_DDOT":0},{"OBJECT_NAME":"GLOBALSTAR M084","OBJECT_ID":"2011-080A","EPOCH":"2026-07-19T06:03:36.758592","CLASSIFICATION_TYPE":"U","MEAN_MOTION":12.62263663,"ECCENTRICITY":0.00007399,"INCLINATION":52.0014,"RA_OF_ASC_NODE":279.6666,"ARG_OF_PERICENTER":136.7218,"MEAN_ANOMALY":256.7974,"EPHEMERIS_TYPE":0,"NORAD_CAT_ID":38040,"ELEMENT_SET_NO":999,"REV_AT_EPOCH":67281,"BSTAR":0.000099995382,"MEAN_MOTION_DOT":-8.6e-7,"MEAN_MOTION_DDOT":0}]}
